[
    {
        "Altitude(m)": 610405.346236174,
        "Argument of Periapsis(deg)": 0.0,
        "Eccentricity": 0.0,
        "Inclination(deg)": 60.0,
        "Latitude(deg)": 52.111335590920746,
        "Longitude(deg)": 122.47748599555104,
        "Mean Anomaly(deg)": 114.5455,
        "RAAN(deg)": 90.0,
        "Satellite Name": "Test1 403",
        "Satellite Number": 403,
        "Semi-Major Axis(m)": 6980739.136638005,
        "Time(s)": 0
    },
    {
        "Altitude(m)": 610321.9190255395,
        "Argument of Periapsis(deg)": 0.00010418945913296404,
        "Eccentricity": 0.0,
        "Inclination(deg)": 60.0,
        "Latitude(deg)": 51.746049852104576,
        "Longitude(deg)": 123.24638001277866,
        "Mean Anomaly(deg)": 115.16560614546188,
        "RAAN(deg)": 89.99957995086027,
        "Satellite Name": "Test1 403",
        "Satellite Number": 403,
        "Semi-Major Axis(m)": 6980739.136638005,
        "Time(s)": 10
    }
]